start=new Date('2021-11-20T00:00:00.000Z').valueOf();
sats=[{"PERIAPSIS":"546.017","TLE_LINE2":"2 46340  53.0527 231.1531 0001775  73.7394 286.3790 15.06389411 67455","DECAY_DATE":null,"RCS_SIZE":"LARGE","ECCENTRICITY":"0.00017750","PERIOD":"95.593","GP_ID":"190075505","OBJECT_TYPE":"PAYLOAD","MEAN_MOTION":"15.06389411","REF_FRAME":"TEME","MEAN_ELEMENT_THEORY":"SGP4","MEAN_MOTION_DDOT":"0.0000000000000","EPOCH":"2021-11-19T05:37:14.403072","ELEMENT_SET_NO":"999","TIME_SYSTEM":"UTC","SEMIMAJOR_AXIS":"6925.381","NORAD_CAT_ID":"46340","RA_OF_ASC_NODE":"231.1531","MEAN_MOTION_DOT":"-0.00002303","APOAPSIS":"548.475","CLASSIFICATION_TYPE":"U","OBJECT_NAME":"STARLINK-1759","MEAN_ANOMALY":"286.3790","LAUNCH_DATE":"2020-09-03","COUNTRY_CODE":"US","BSTAR":"-0.00013576000000","EPHEMERIS_TYPE":"0","OBJECT_ID":"2020-062R","ARG_OF_PERICENTER":"73.7394","REV_AT_EPOCH":"6745","FILE":"3219209","SITE":"AFETR","TLE_LINE1":"1 46340U 20062R   21323.23419448 -.00002303  00000-0 -13576-3 0  9998","INCLINATION":"53.0527","CENTER_NAME":"EARTH"},{"CENTER_NAME":"EARTH","INCLINATION":"53.0524","SITE":"AFETR","TLE_LINE1":"1 46341U 20062S   21323.10797586  .00000057  00000-0  22752-4 0  9996","REV_AT_EPOCH":"6772","FILE":"3219209","OBJECT_ID":"2020-062S","ARG_OF_PERICENTER":"70.7232","LAUNCH_DATE":"2020-09-03","COUNTRY_CODE":"US","MEAN_ANOMALY":"289.3962","BSTAR":"0.00002275200000","EPHEMERIS_TYPE":"0","OBJECT_NAME":"STARLINK-1760","CLASSIFICATION_TYPE":"U","APOAPSIS":"548.541","RA_OF_ASC_NODE":"211.7307","MEAN_MOTION_DOT":"0.00000057","NORAD_CAT_ID":"46341","SEMIMAJOR_AXIS":"6925.360","ELEMENT_SET_NO":"999","TIME_SYSTEM":"UTC","MEAN_MOTION_DDOT":"0.0000000000000","EPOCH":"2021-11-19T02:35:29.114304","OBJECT_TYPE":"PAYLOAD","REF_FRAME":"TEME","MEAN_MOTION":"15.06396192","MEAN_ELEMENT_THEORY":"SGP4","GP_ID":"190075256","PERIOD":"95.592","ECCENTRICITY":"0.00019000","RCS_SIZE":"LARGE","DECAY_DATE":null,"PERIAPSIS":"545.909","TLE_LINE2":"2 46341  53.0524 211.7307 0001900  70.7232 289.3962 15.06396192 67724"},{"TLE_LINE2":"2 46342  53.0527 230.0320 0001665  72.5520 287.5651 15.06399960 67490","PERIAPSIS":"546.061","RCS_SIZE":"LARGE","DECAY_DATE":null,"ECCENTRICITY":"0.00016650","EPOCH":"2021-11-19T11:39:31.261536","MEAN_MOTION_DDOT":"0.0000000000000","MEAN_ELEMENT_THEORY":"SGP4","MEAN_MOTION":"15.06399960","REF_FRAME":"TEME","OBJECT_TYPE":"PAYLOAD","GP_ID":"190074003","PERIOD":"95.592","NORAD_CAT_ID":"46342","SEMIMAJOR_AXIS":"6925.349","TIME_SYSTEM":"UTC","ELEMENT_SET_NO":"999","OBJECT_NAME":"STARLINK-1762","CLASSIFICATION_TYPE":"U","APOAPSIS":"548.367","MEAN_MOTION_DOT":"0.00000077","RA_OF_ASC_NODE":"230.0320","FILE":"3219209","REV_AT_EPOCH":"6749","ARG_OF_PERICENTER":"72.5520","OBJECT_ID":"2020-062T","BSTAR":"0.00002409400000","EPHEMERIS_TYPE":"0","LAUNCH_DATE":"2020-09-03","COUNTRY_CODE":"US","MEAN_ANOMALY":"287.5651","CENTER_NAME":"EARTH","INCLINATION":"53.0527","TLE_LINE1":"1 46342U 20062T   21323.48577849  .00000077  00000-0  24094-4 0  9999","SITE":"AFETR"},{"MEAN_MOTION_DOT":"0.00000060","RA_OF_ASC_NODE":"210.3547","OBJECT_NAME":"STARLINK-1764","CLASSIFICATION_TYPE":"U","APOAPSIS":"548.417","TIME_SYSTEM":"UTC","ELEMENT_SET_NO":"999","NORAD_CAT_ID":"46343","SEMIMAJOR_AXIS":"6925.364","INCLINATION":"53.0546","TLE_LINE1":"1 46343U 20062U   21323.41391197  .00000060  00000-0  22902-4 0  9991","SITE":"AFETR","CENTER_NAME":"EARTH","BSTAR":"0.00002290200000","EPHEMERIS_TYPE":"0","LAUNCH_DATE":"2020-09-03","COUNTRY_CODE":"US","MEAN_ANOMALY":"288.1425","FILE":"3219209","REV_AT_EPOCH":"6776","ARG_OF_PERICENTER":"71.9751","OBJECT_ID":"2020-062U","DECAY_DATE":null,"RCS_SIZE":"LARGE","PERIAPSIS":"546.041","TLE_LINE2":"2 46343  53.0546 210.3547 0001715  71.9751 288.1425 15.06394950 67769","GP_ID":"190074254","PERIOD":"95.592","EPOCH":"2021-11-19T09:56:01.994208","MEAN_MOTION_DDOT":"0.0000000000000","MEAN_ELEMENT_THEORY":"SGP4","MEAN_MOTION":"15.06394950","REF_FRAME":"TEME","OBJECT_TYPE":"PAYLOAD","ECCENTRICITY":"0.00017150"},{"GP_ID":"190075006","PERIOD":"95.593","MEAN_MOTION_DDOT":"0.0000000000000","EPOCH":"2021-11-19T10:22:34.216608","OBJECT_TYPE":"PAYLOAD","MEAN_MOTION":"15.06393854","MEAN_ELEMENT_THEORY":"SGP4","REF_FRAME":"TEME","ECCENTRICITY":"0.00018800","DECAY_DATE":null,"RCS_SIZE":"LARGE","TLE_LINE2":"2 46344  53.0534 210.2640 0001880  67.0750 293.0437 15.06393854 67768","PERIAPSIS":"545.930","INCLINATION":"53.0534","SITE":"AFETR","TLE_LINE1":"1 46344U 20062V   21323.43234047 -.00000399  00000-0 -78920-5 0  9993","CENTER_NAME":"EARTH","LAUNCH_DATE":"2020-09-03","COUNTRY_CODE":"US","MEAN_ANOMALY":"293.0437","BSTAR":"-0.00000789200000","EPHEMERIS_TYPE":"0","REV_AT_EPOCH":"6776","FILE":"3219209","OBJECT_ID":"2020-062V","ARG_OF_PERICENTER":"67.0750","RA_OF_ASC_NODE":"210.2640","MEAN_MOTION_DOT":"-0.00000399","OBJECT_NAME":"STARLINK-1765","APOAPSIS":"548.534","CLASSIFICATION_TYPE":"U","ELEMENT_SET_NO":"999","TIME_SYSTEM":"UTC","NORAD_CAT_ID":"46344","SEMIMAJOR_AXIS":"6925.367"},{"TLE_LINE2":"2 46345  53.0539 231.4426 0001741  68.3055 291.8119 15.06397779 67447","PERIAPSIS":"546.015","RCS_SIZE":"LARGE","DECAY_DATE":null,"ECCENTRICITY":"0.00017410","MEAN_MOTION":"15.06397779","MEAN_ELEMENT_THEORY":"SGP4","REF_FRAME":"TEME","OBJECT_TYPE":"PAYLOAD","EPOCH":"2021-11-19T04:03:03.698784","MEAN_MOTION_DDOT":"0.0000000000000","PERIOD":"95.592","GP_ID":"190075756","NORAD_CAT_ID":"46345","SEMIMAJOR_AXIS":"6925.355","TIME_SYSTEM":"UTC","ELEMENT_SET_NO":"999","APOAPSIS":"548.426","CLASSIFICATION_TYPE":"U","OBJECT_NAME":"STARLINK-1767","MEAN_MOTION_DOT":"0.00000292","RA_OF_ASC_NODE":"231.4426","ARG_OF_PERICENTER":"68.3055","OBJECT_ID":"2020-062W","FILE":"3219209","REV_AT_EPOCH":"6744","EPHEMERIS_TYPE":"0","BSTAR":"0.00003851000000","COUNTRY_CODE":"US","LAUNCH_DATE":"2020-09-03","MEAN_ANOMALY":"291.8119","CENTER_NAME":"EARTH","TLE_LINE1":"1 46345U 20062W   21323.16879281  .00000292  00000-0  38510-4 0  9999","SITE":"AFETR","INCLINATION":"53.0539"},{"GP_ID":"190074503","PERIOD":"93.856","MEAN_MOTION_DDOT":"0.0000000000000","EPOCH":"2021-11-19T11:04:02.767296","OBJECT_TYPE":"PAYLOAD","MEAN_MOTION":"15.34266013","MEAN_ELEMENT_THEORY":"SGP4","REF_FRAME":"TEME","ECCENTRICITY":"0.00014720","DECAY_DATE":null,"RCS_SIZE":"LARGE","TLE_LINE2":"2 46346  53.0549 114.8329 0001472  67.8239 292.2918 15.34266013 69119","PERIAPSIS":"462.096","INCLINATION":"53.0549","SITE":"AFETR","TLE_LINE1":"1 46346U 20062X   21323.46114314 -.00000243  00000-0  39418-5 0  9998","CENTER_NAME":"EARTH","MEAN_ANOMALY":"292.2918","LAUNCH_DATE":"2020-09-03","COUNTRY_CODE":"US","BSTAR":"0.00000394180000","EPHEMERIS_TYPE":"0","REV_AT_EPOCH":"6911","FILE":"3219209","OBJECT_ID":"2020-062X","ARG_OF_PERICENTER":"67.8239","RA_OF_ASC_NODE":"114.8329","MEAN_MOTION_DOT":"-0.00000243","OBJECT_NAME":"STARLINK-1546","CLASSIFICATION_TYPE":"U","APOAPSIS":"464.111","ELEMENT_SET_NO":"999","TIME_SYSTEM":"UTC","SEMIMAJOR_AXIS":"6841.239","NORAD_CAT_ID":"46346"},{"ECCENTRICITY":"0.00018290","MEAN_MOTION":"15.06402690","REF_FRAME":"TEME","MEAN_ELEMENT_THEORY":"SGP4","OBJECT_TYPE":"PAYLOAD","EPOCH":"2021-11-19T07:49:18.018336","MEAN_MOTION_DDOT":"0.0000000000000","PERIOD":"95.592","GP_ID":"190074754","PERIAPSIS":"545.939","TLE_LINE2":"2 46347  53.0542 185.7317 0001829  79.1690 280.9505 15.06402690 68083","RCS_SIZE":"LARGE","DECAY_DATE":null,"ARG_OF_PERICENTER":"79.1690","OBJECT_ID":"2020-062Y","FILE":"3219209","REV_AT_EPOCH":"6808","EPHEMERIS_TYPE":"0","BSTAR":"-0.00002415800000","LAUNCH_DATE":"2020-09-03","COUNTRY_CODE":"US","MEAN_ANOMALY":"280.9505","CENTER_NAME":"EARTH","TLE_LINE1":"1 46347U 20062Y   21323.32590299 -.00000641  00000-0 -24158-4 0  9991","SITE":"AFETR","INCLINATION":"53.0542","SEMIMAJOR_AXIS":"6925.340","NORAD_CAT_ID":"46347","TIME_SYSTEM":"UTC","ELEMENT_SET_NO":"999","CLASSIFICATION_TYPE":"U","APOAPSIS":"548.472","OBJECT_NAME":"STARLINK-1547","MEAN_MOTION_DOT":"-0.00000641","RA_OF_ASC_NODE":"185.7317"},{"COUNTRY_CODE":"US","LAUNCH_DATE":"2020-09-03","MEAN_ANOMALY":"312.9176","BSTAR":"0.00013326000000","EPHEMERIS_TYPE":"0","REV_AT_EPOCH":"6777","FILE":"3219209","OBJECT_ID":"2020-062Z","ARG_OF_PERICENTER":"47.2014","INCLINATION":"53.0529","SITE":"AFETR","TLE_LINE1":"1 46348U 20062Z   21323.50237499  .00001704  00000-0  13326-3 0  9995","CENTER_NAME":"EARTH","ELEMENT_SET_NO":"999","TIME_SYSTEM":"UTC","SEMIMAJOR_AXIS":"6925.335","NORAD_CAT_ID":"46348","RA_OF_ASC_NODE":"209.9454","MEAN_MOTION_DOT":"0.00001704","OBJECT_NAME":"STARLINK-1553","CLASSIFICATION_TYPE":"U","APOAPSIS":"548.854","ECCENTRICITY":"0.00023890","GP_ID":"190075506","PERIOD":"95.592","MEAN_MOTION_DDOT":"0.0000000000000","EPOCH":"2021-11-19T12:03:25.199136","OBJECT_TYPE":"PAYLOAD","MEAN_ELEMENT_THEORY":"SGP4","MEAN_MOTION":"15.06404422","REF_FRAME":"TEME","PERIAPSIS":"545.546","TLE_LINE2":"2 46348  53.0529 209.9454 0002389  47.2014 312.9176 15.06404422 67778","DECAY_DATE":null,"RCS_SIZE":"LARGE"},{"DECAY_DATE":null,"RCS_SIZE":"LARGE","TLE_LINE2":"2 46349  53.0743 186.9581 0001870  71.6773 288.4420 15.06399405 68054","PERIAPSIS":"545.920","PERIOD":"95.592","GP_ID":"190075257","MEAN_MOTION":"15.06399405","MEAN_ELEMENT_THEORY":"SGP4","REF_FRAME":"TEME","OBJECT_TYPE":"PAYLOAD","EPOCH":"2021-11-19T00:49:59.420928","MEAN_MOTION_DDOT":"0.0000000000000","ECCENTRICITY":"0.00018700","MEAN_MOTION_DOT":"0.00001101","RA_OF_ASC_NODE":"186.9581","CLASSIFICATION_TYPE":"U","APOAPSIS":"548.510","OBJECT_NAME":"STARLINK-1575","TIME_SYSTEM":"UTC","ELEMENT_SET_NO":"999","NORAD_CAT_ID":"46349","SEMIMAJOR_AXIS":"6925.350","TLE_LINE1":"1 46349U 20062AA  21323.03471552  .00001101  00000-0  92830-4 0  9993","SITE":"AFETR","INCLINATION":"53.0743","CENTER_NAME":"EARTH","BSTAR":"0.00009283000000","EPHEMERIS_TYPE":"0","LAUNCH_DATE":"2020-09-03","MEAN_ANOMALY":"288.4420","COUNTRY_CODE":"US","ARG_OF_PERICENTER":"71.6773","OBJECT_ID":"2020-062AA","FILE":"3219209","REV_AT_EPOCH":"6805"}];
